{"type": "FeatureCollection", "features": [ {"type": "Feature", "properties": {"norad_id": 37967, "name": "COSMOS 2251 DEB", "group": "cosmos-2251-debris", "lat": 70.35271997445604, "lon": -176.62156203440006, "alt_km": 855.6580001298844, "timestamp": "2025-12-16T17:51:11.330279+00:00", "meta": {"OBJECT_NAME": "COSMOS 2251 DEB", "OBJECT_ID": "1993-036BPS", "EPOCH": "2025-12-15T09:48:59.212224", "MEAN_MOTION": 14.40546786, "ECCENTRICITY": 0.01508745, "INCLINATION": 74.0141, "RA_OF_ASC_NODE": 132.4376, "ARG_OF_PERICENTER": 270.6465, "MEAN_ANOMALY": 87.7405, "EPHEMERIS_TYPE": 0, "CLASSIFICATION_TYPE": "U", "NORAD_CAT_ID": 37967, "ELEMENT_SET_NO": 999, "REV_AT_EPOCH": 64774, "BSTAR": 0.001082904, "MEAN_MOTION_DOT": 3.918e-05, "MEAN_MOTION_DDOT": 0}, "tle": {"line1": "1 37967U 93036BPS 25349.40901866  .00003918  00000+0  10829-2 0  9992", "line2": "2 37967  74.0141 132.4376 0150874 270.6465  87.7405 14.40546786647746"}}, "geometry": {"type": "Point", "coordinates": [-176.62156203440006, 70.35271997445604]}}, {"type": "Feature", "properties": {"norad_id": 37968, "name": "COSMOS 2251 DEB", "group": "cosmos-2251-debris", "lat": 15.14062633789118, "lon": -92.55160886747205, "alt_km": 509.2739021415673, "timestamp": "2025-12-16T17:51:11.330290+00:00", "meta": {"OBJECT_NAME": "COSMOS 2251 DEB", "OBJECT_ID": "1993-036BPT", "EPOCH": "2025-12-13T01:47:19.904352", "MEAN_MOTION": 15.00631404, "ECCENTRICITY": 0.00804189, "INCLINATION": 74.0008, "RA_OF_ASC_NODE": 270.4748, "ARG_OF_PERICENTER": 26.0645, "MEAN_ANOMALY": 334.4556, "EPHEMERIS_TYPE": 0, "CLASSIFICATION_TYPE": "U", "NORAD_CAT_ID": 37968, "ELEMENT_SET_NO": 999, "REV_AT_EPOCH": 60224, "BSTAR": 0.001541289, "MEAN_MOTION_DOT": 0.00020898, "MEAN_MOTION_DDOT": 0}, "tle": {"line1": "1 37968U 93036BPT 25347.07453593  .00020898  00000+0  15413-2 0  9993", "line2": "2 37968  74.0008 270.4748 0080418  26.0645 334.4556 15.00631404602248"}}, "geometry": {"type": "Point", "coordinates": [-92.55160886747205, 15.14062633789118]}}, {"type": "Feature", "properties": {"norad_id": 37971, "name": "COSMOS 2251 DEB", "group": "cosmos-2251-debris", "lat": -73.34212624903249, "lon": -72.1761711084903, "alt_km": 738.9103176166072, "timestamp": "2025-12-16T17:51:11.330301+00:00", "meta": {"OBJECT_NAME": "COSMOS 2251 DEB", "OBJECT_ID": "1993-036BPW", "EPOCH": "2025-12-15T20:44:52.764576", "MEAN_MOTION": 14.48694104, "ECCENTRICITY": 0.00668395, "INCLINATION": 73.9939, "RA_OF_ASC_NODE": 35.8693, "ARG_OF_PERICENTER": 174.332, "MEAN_ANOMALY": 185.8612, "EPHEMERIS_TYPE": 0, "CLASSIFICATION_TYPE": "U", "NORAD_CAT_ID": 37971, "ELEMENT_SET_NO": 999, "REV_AT_EPOCH": 60723, "BSTAR": 0.0012835139, "MEAN_MOTION_DOT": 4.95e-05, "MEAN_MOTION_DDOT": 0}, "tle": {"line1": "1 37971U 93036BPW 25349.86449959  .00004950  00000+0  12835-2 0  9993", "line2": "2 37971  73.9939  35.8693 0066839 174.3320 185.8612 14.48694104607235"}}, "geometry": {"type": "Point", "coordinates": [-72.1761711084903, -73.34212624903249]}}, {"type": "Feature", "properties": {"norad_id": 37975, "name": "COSMOS 2251 DEB", "group": "cosmos-2251-debris", "lat": -7.296206918568209, "lon": 138.31939431846993, "alt_km": 674.5941178889389, "timestamp": "2025-12-16T17:51:11.330311+00:00", "meta": {"OBJECT_NAME": "COSMOS 2251 DEB", "OBJECT_ID": "1993-036BQA", "EPOCH": "2025-12-13T15:48:30.179232", "MEAN_MOTION": 14.76130148, "ECCENTRICITY": 0.00956338, "INCLINATION": 74.0029, "RA_OF_ASC_NODE": 322.2658, "ARG_OF_PERICENTER": 311.4373, "MEAN_ANOMALY": 47.8613, "EPHEMERIS_TYPE": 0, "CLASSIFICATION_TYPE": "U", "NORAD_CAT_ID": 37975, "ELEMENT_SET_NO": 999, "REV_AT_EPOCH": 69759, "BSTAR": 0.0039912819, "MEAN_MOTION_DOT": 0.00029805, "MEAN_MOTION_DDOT": 0}, "tle": {"line1": "1 37975U 93036BQA 25347.65868263  .00029805  00000+0  39913-2 0  9997", "line2": "2 37975  74.0029 322.2658 0095633 311.4373  47.8613 14.76130148697591"}}, "geometry": {"type": "Point", "coordinates": [138.31939431846993, -7.296206918568209]}}, {"type": "Feature", "properties": {"norad_id": 37978, "name": "COSMOS 2251 DEB", "group": "cosmos-2251-debris", "lat": -60.856458497372735, "lon": -69.23567155278597, "alt_km": 294.65260776890955, "timestamp": "2025-12-16T17:51:11.330322+00:00", "meta": {"OBJECT_NAME": "COSMOS 2251 DEB", "OBJECT_ID": "1993-036BQD", "EPOCH": "2025-11-19T05:08:53.100672", "MEAN_MOTION": 15.61137081, "ECCENTRICITY": 0.00148985, "INCLINATION": 74.0238, "RA_OF_ASC_NODE": 142.2198, "ARG_OF_PERICENTER": 140.9849, "MEAN_ANOMALY": 219.2448, "EPHEMERIS_TYPE": 0, "CLASSIFICATION_TYPE": "U", "NORAD_CAT_ID": 37978, "ELEMENT_SET_NO": 999, "REV_AT_EPOCH": 8032, "BSTAR": 0.0043958825, "MEAN_MOTION_DOT": 0.0039117, "MEAN_MOTION_DDOT": 0}, "tle": {"line1": "1 37978U 93036BQD 25323.21450348  .00391170  00000+0  43959-2 0  9999", "line2": "2 37978  74.0238 142.2198 0014898 140.9849 219.2448 15.61137081 80328"}}, "geometry": {"type": "Point", "coordinates": [-69.23567155278597, -60.856458497372735]}}, {"type": "Feature", "properties": {"norad_id": 37985, "name": "COSMOS 2251 DEB", "group": "cosmos-2251-debris", "lat": 28.006944010113386, "lon": -92.84790874542387, "alt_km": 757.1495528830847, "timestamp": "2025-12-16T17:51:11.330332+00:00", "meta": {"OBJECT_NAME": "COSMOS 2251 DEB", "OBJECT_ID": "1993-036BQL", "EPOCH": "2025-12-14T12:11:43.486080", "MEAN_MOTION": 14.35483597, "ECCENTRICITY": 0.00208601, "INCLINATION": 74.0254, "RA_OF_ASC_NODE": 262.4907, "ARG_OF_PERICENTER": 24.7118, "MEAN_ANOMALY": 335.5029, "EPHEMERIS_TYPE": 0, "CLASSIFICATION_TYPE": "U", "NORAD_CAT_ID": 37985, "ELEMENT_SET_NO": 999, "REV_AT_EPOCH": 64942, "BSTAR": 6.1585039e-05, "MEAN_MOTION_DOT": 1.51e-06, "MEAN_MOTION_DDOT": 0}, "tle": {"line1": "1 37985U 93036BQL 25348.50814220  .00000151  00000+0  61585-4 0  9992", "line2": "2 37985  74.0254 262.4907 0020860  24.7118 335.5029 14.35483597649426"}}, "geometry": {"type": "Point", "coordinates": [-92.84790874542387, 28.006944010113386]}}, {"type": "Feature", "properties": {"norad_id": 37988, "name": "COSMOS 2251 DEB", "group": "cosmos-2251-debris", "lat": 26.348319421807258, "lon": -171.84834525406526, "alt_km": 670.5646227137913, "timestamp": "2025-12-16T17:51:11.330343+00:00", "meta": {"OBJECT_NAME": "COSMOS 2251 DEB", "OBJECT_ID": "1993-036BQP", "EPOCH": "2025-12-15T01:56:17.446272", "MEAN_MOTION": 14.68888628, "ECCENTRICITY": 0.00634048, "INCLINATION": 74.0635, "RA_OF_ASC_NODE": 19.4997, "ARG_OF_PERICENTER": 56.3451, "MEAN_ANOMALY": 304.3745, "EPHEMERIS_TYPE": 0, "CLASSIFICATION_TYPE": "U", "NORAD_CAT_ID": 37988, "ELEMENT_SET_NO": 999, "REV_AT_EPOCH": 23430, "BSTAR": 0.00052756318, "MEAN_MOTION_DOT": 3.15e-05, "MEAN_MOTION_DDOT": 0}, "tle": {"line1": "1 37988U 93036BQP 25349.08075748  .00003150  00000+0  52756-3 0  9994", "line2": "2 37988  74.0635  19.4997 0063404  56.3451 304.3745 14.68888628234309"}}, "geometry": {"type": "Point", "coordinates": [-171.84834525406526, 26.348319421807258]}}, {"type": "Feature", "properties": {"norad_id": 37993, "name": "COSMOS 2251 DEB", "group": "cosmos-2251-debris", "lat": 18.873911604294666, "lon": -26.35418863838601, "alt_km": 692.4276706355276, "timestamp": "2025-12-16T17:51:11.330353+00:00", "meta": {"OBJECT_NAME": "COSMOS 2251 DEB", "OBJECT_ID": "1993-036BQU", "EPOCH": "2025-12-15T18:05:44.274624", "MEAN_MOTION": 14.59951171, "ECCENTRICITY": 0.00219415, "INCLINATION": 74.0208, "RA_OF_ASC_NODE": 161.1572, "ARG_OF_PERICENTER": 249.6416, "MEAN_ANOMALY": 110.2393, "EPHEMERIS_TYPE": 0, "CLASSIFICATION_TYPE": "U", "NORAD_CAT_ID": 37993, "ELEMENT_SET_NO": 999, "REV_AT_EPOCH": 65361, "BSTAR": 0.00087496413, "MEAN_MOTION_DOT": 4.181e-05, "MEAN_MOTION_DDOT": 0}, "tle": {"line1": "1 37993U 93036BQU 25349.75398466  .00004181  00000+0  87496-3 0  9993", "line2": "2 37993  74.0208 161.1572 0021941 249.6416 110.2393 14.59951171653619"}}, "geometry": {"type": "Point", "coordinates": [-26.35418863838601, 18.873911604294666]}}, {"type": "Feature", "properties": {"norad_id": 37994, "name": "COSMOS 2251 DEB", "group": "cosmos-2251-debris", "lat": -42.629702177691755, "lon": -106.98218881417912, "alt_km": 751.9639298702359, "timestamp": "2025-12-16T17:51:11.330363+00:00", "meta": {"OBJECT_NAME": "COSMOS 2251 DEB", "OBJECT_ID": "1993-036BQV", "EPOCH": "2025-12-15T20:22:44.092416", "MEAN_MOTION": 14.39630668, "ECCENTRICITY": 0.00230504, "INCLINATION": 74.0361, "RA_OF_ASC_NODE": 269.9469, "ARG_OF_PERICENTER": 348.814, "MEAN_ANOMALY": 11.2499, "EPHEMERIS_TYPE": 0, "CLASSIFICATION_TYPE": "U", "NORAD_CAT_ID": 37994, "ELEMENT_SET_NO": 999, "REV_AT_EPOCH": 77109, "BSTAR": 0.00034031473, "MEAN_MOTION_DOT": 1.041e-05, "MEAN_MOTION_DDOT": 0}, "tle": {"line1": "1 37994U 93036BQV 25349.84912144  .00001041  00000+0  34031-3 0  9998", "line2": "2 37994  74.0361 269.9469 0023050 348.8140  11.2499 14.39630668771094"}}, "geometry": {"type": "Point", "coordinates": [-106.98218881417912, -42.629702177691755]}}, {"type": "Feature", "properties": {"norad_id": 37996, "name": "COSMOS 2251 DEB", "group": "cosmos-2251-debris", "lat": 9.842942975637346, "lon": 13.312036272503486, "alt_km": 970.1398300007177, "timestamp": "2025-12-16T17:51:11.330373+00:00", "meta": {"OBJECT_NAME": "COSMOS 2251 DEB", "OBJECT_ID": "1993-036BQX", "EPOCH": "2025-11-16T18:35:00.708864", "MEAN_MOTION": 14.09591608, "ECCENTRICITY": 0.02219827, "INCLINATION": 74.0658, "RA_OF_ASC_NODE": 248.8308, "ARG_OF_PERICENTER": 5.4709, "MEAN_ANOMALY": 354.8776, "EPHEMERIS_TYPE": 0, "CLASSIFICATION_TYPE": "U", "NORAD_CAT_ID": 37996, "ELEMENT_SET_NO": 999, "REV_AT_EPOCH": 55769, "BSTAR": 0.0096790999, "MEAN_MOTION_DOT": 0.00021331, "MEAN_MOTION_DDOT": 0}, "tle": {"line1": "1 37996U 93036BQX 25320.77431376  .00021331  00000+0  96791-2 0  9998", "line2": "2 37996  74.0658 248.8308 0221982   5.4709 354.8776 14.09591608557693"}}, "geometry": {"type": "Point", "coordinates": [13.312036272503486, 9.842942975637346]}}]}